NORAD_CAT_ID,OBJECT_NAME,OBJECT_TYPE,EPOCH,MEAN_MOTION,ECCENTRICITY,INCLINATION,RA_OF_ASC_NODE,ARG_OF_PERICENTER,MEAN_ANOMALY,BSTAR,MEAN_MOTION_DOT,MEAN_MOTION_DDOT,TLE_LINE0,TLE_LINE1,TLE_LINE2,SEMIMAJOR_AXIS,PERIOD,APOGEE,PERIGEE,DECAYED
51861.0,STARLINK-3562,PAYLOAD,2023-10-05 14:53:15,15.08853053,0.0001563,53.2182,26.8415,89.1348,270.9823,0.00019154,2.763e-05,0.0,0 STARLINK-3562,1 51861U 22022K   23278.62031651  .00002763  00000-0  19154-3 0  9996,2 51861  53.2182  26.8415 0001563  89.1348 270.9823 15.08853053 89330,6917.84,95.437,540.787,538.624,0.0
51861.0,STARLINK-3562,PAYLOAD,2023-10-06 06:47:07,15.08836868,0.0001408,53.2181,23.8657,118.6525,241.4609,-0.00017326,-3.044e-05,0.0,0 STARLINK-3562,1 51861U 22022K   23279.28272496 -.00003044  00000-0 -17326-3 0  9997,2 51861  53.2181  23.8657 0001408 118.6525 241.4609 15.08836868 89438,6917.89,95.438,540.729,538.781,0.0
51861.0,STARLINK-3562,PAYLOAD,2023-10-06 13:08:39,15.08840118,0.0001504,53.2182,22.677,109.2963,250.8192,-7.5239e-05,-1.485e-05,0.0,0 STARLINK-3562,1 51861U 22022K   23279.54768478 -.00001485  00000-0 -75239-4 0  9991,2 51861  53.2182  22.6770 0001504 109.2963 250.8192 15.08840118 89402,6917.88,95.438,540.785,538.705,0.0
51861.0,STARLINK-3562,PAYLOAD,2023-10-06 14:44:03,15.08839516,0.0001448,53.218,22.3798,104.4,255.7153,5.0808e-05,5.21e-06,0.0,0 STARLINK-3562,1 51861U 22022K   23279.61392486  .00000521  00000-0  50808-4 0  9994,2 51861  53.2180  22.3798 0001448 104.4000 255.7153 15.08839516 89415,6917.882,95.438,540.749,538.745,0.0
51861.0,STARLINK-3562,PAYLOAD,2023-10-07 12:59:27,15.08846336,0.0001536,53.2171,18.2187,83.5789,276.5378,0.00018228,2.615e-05,0.0,0 STARLINK-3562,1 51861U 22022K   23280.54128712  .00002615  00000-0  18228-3 0  9992,2 51861  53.2171  18.2187 0001536  83.5789 276.5378 15.08846336 89553,6917.861,95.437,540.789,538.663,0.0
51861.0,STARLINK-3562,PAYLOAD,2023-10-08 09:39:28,15.08840889,0.0001643,53.2188,14.3521,98.8971,261.2207,0.00015296,2.147e-05,0.0,0 STARLINK-3562,1 51861U 22022K   23281.40241188  .00002147  00000-0  15296-3 0  9993,2 51861  53.2188  14.3521 0001643  98.8971 261.2207 15.08840889 89752,6917.878,95.437,540.879,538.606,0.0
51861.0,STARLINK-3562,PAYLOAD,2023-10-08 12:50:14,15.08843026,0.0001727,53.2191,13.7579,98.1024,262.0165,0.00020895,3.039e-05,0.0,0 STARLINK-3562,1 51861U 22022K   23281.53489134  .00003039  00000-0  20895-3 0  9994,2 51861  53.2191  13.7579 0001727  98.1024 262.0165 15.08843026 89700,6917.871,95.437,540.931,538.541,0.0
51861.0,STARLINK-3562,PAYLOAD,2023-10-08 16:01:00,15.08851075,0.0001519,53.2183,13.1605,95.1064,265.0102,0.00026316,3.904e-05,0.0,0 STARLINK-3562,1 51861U 22022K   23281.66736660  .00003904  00000-0  26316-3 0  9992,2 51861  53.2183  13.1605 0001519  95.1064 265.0102 15.08851075 89791,6917.847,95.437,540.762,538.661,0.0
51861.0,STARLINK-3562,PAYLOAD,2023-10-09 12:41:01,15.08846907,0.0001582,53.2178,9.2974,96.1297,263.9876,0.00013061,1.792e-05,0.0,0 STARLINK-3562,1 51861U 22022K   23282.52848924  .00001792  00000-0  13061-3 0  9991,2 51861  53.2178   9.2974 0001582  96.1297 263.9876 15.08846907 89859,6917.859,95.437,540.819,538.63,0.0
51861.0,STARLINK-3562,PAYLOAD,2023-10-10 12:31:48,15.08854891,0.0001527,53.219,4.8402,91.5219,268.5948,0.0002862,4.272e-05,0.0,0 STARLINK-3562,1 51861U 22022K   23283.52208403  .00004272  00000-0  28620-3 0  9997,2 51861  53.2190   4.8402 0001527  91.5219 268.5948 15.08854891 90003,6917.835,95.437,540.756,538.644,0.0
51861.0,STARLINK-3562,PAYLOAD,2023-10-11 10:47:12,15.08834906,0.0001547,53.2184,0.6724,93.8381,266.2789,-3.8443e-05,-9e-06,0.0,0 STARLINK-3562,1 51861U 22022K   23284.44945592 -.00000900  00000-0 -38443-4 0  9997,2 51861  53.2184   0.6724 0001547  93.8381 266.2789 15.08834906 90210,6917.896,95.438,540.831,538.691,0.0
51861.0,STARLINK-3562,PAYLOAD,2023-10-11 12:22:35,15.08841593,0.0001424,53.2185,0.3757,87.8997,272.2158,6.2584e-05,7.08e-06,0.0,0 STARLINK-3562,1 51861U 22022K   23284.51569356  .00000708  00000-0  62584-4 0  9992,2 51861  53.2185   0.3757 0001424  87.8997 272.2158 15.08841593 90154,6917.876,95.437,540.726,538.755,0.0
51861.0,STARLINK-3562,PAYLOAD,2023-10-11 13:57:59,15.08841449,0.0001427,53.2186,0.0785,88.3187,271.7968,5.8705e-05,6.47e-06,0.0,0 STARLINK-3562,1 51861U 22022K   23284.58193357  .00000647  00000-0  58705-4 0  9995,2 51861  53.2186   0.0785 0001427  88.3187 271.7968 15.08841449 90235,6917.876,95.437,540.728,538.754,0.0
51861.0,STARLINK-3562,PAYLOAD,2023-10-12 12:13:22,15.08846181,0.0001589,53.2182,355.9159,88.4595,271.6579,0.00015037,2.106e-05,0.0,0 STARLINK-3562,1 51861U 22022K   23285.50929195  .00002106  00000-0  15037-3 0  9997,2 51861  53.2182 355.9159 0001589  88.4595 271.6579 15.08846181 90304,6917.861,95.437,540.826,538.627,0.0
51861.0,STARLINK-3562,PAYLOAD,2023-10-13 12:04:10,15.08844961,0.0001828,53.2185,351.4561,70.2021,289.9169,0.00015761,2.221e-05,0.0,0 STARLINK-3562,1 51861U 22022K   23286.50289740  .00002221  00000-0  15761-3 0  9995,2 51861  53.2185 351.4561 0001828  70.2021 289.9169 15.08844961 90529,6917.865,95.437,540.995,538.466,0.0
51861.0,STARLINK-3562,PAYLOAD,2023-10-13 21:36:28,15.08850338,0.0001753,53.2186,349.6727,78.1922,281.9266,0.00023426,3.443e-05,0.0,0 STARLINK-3562,1 51861U 22022K   23286.90033378  .00003443  00000-0  23426-3 0  9997,2 51861  53.2186 349.6727 0001753  78.1922 281.9266 15.08850338 90511,6917.849,95.437,540.926,538.501,0.0
51861.0,STARLINK-3562,PAYLOAD,2023-10-14 10:19:33,15.08852489,0.0001393,53.2159,347.2941,79.8971,280.2179,0.0001509,2.115e-05,0.0,0 STARLINK-3562,1 51861U 22022K   23287.43024871  .00002115  00000-0  15090-3 0  9997,2 51861  53.2159 347.2941 0001393  79.8971 280.2179 15.08852489 90597,6917.842,95.437,540.671,538.744,0.0
51861.0,STARLINK-3562,PAYLOAD,2023-10-14 21:27:15,15.08843162,0.0001774,53.2177,345.2146,74.5081,285.6107,8.0051e-05,9.86e-06,0.0,0 STARLINK-3562,1 51861U 22022K   23287.89393474  .00000986  00000-0  80051-4 0  9999,2 51861  53.2177 345.2146 0001774  74.5081 285.6107 15.08843162 90665,6917.871,95.437,540.963,538.508,0.0
51861.0,STARLINK-3562,PAYLOAD,2023-10-14 23:02:39,15.08842174,0.0001703,53.2161,344.9157,82.8014,277.3172,7.5558e-05,9.15e-06,0.0,0 STARLINK-3562,1 51861U 22022K   23287.96017498  .00000915  00000-0  75558-4 0  9994,2 51861  53.2161 344.9157 0001703  82.8014 277.3172 15.08842174 90747,6917.874,95.437,540.917,538.561,0.0
51861.0,STARLINK-3562,PAYLOAD,2023-10-15 10:10:21,15.08826375,0.0001463,53.2171,342.8336,87.5046,272.6113,-0.0002072,-3.583e-05,0.0,0 STARLINK-3562,1 51861U 22022K   23288.42386543 -.00003583  00000-0 -20720-3 0  9992,2 51861  53.2171 342.8336 0001463  87.5046 272.6113 15.08826375 90810,6917.922,95.438,540.799,538.775,0.0
51861.0,STARLINK-3562,PAYLOAD,2023-10-15 13:21:08,15.08831418,0.0001448,53.216,342.2368,100.6202,259.4953,-0.00013797,-2.483e-05,0.0,0 STARLINK-3562,1 51861U 22022K   23288.55634296 -.00002483  00000-0 -13797-3 0  9991,2 51861  53.2160 342.2368 0001448 100.6202 259.4953 15.08831418 90764,6917.907,95.438,540.773,538.77,0.0
51861.0,STARLINK-3562,PAYLOAD,2023-10-15 21:18:03,15.08835435,0.0001556,53.2164,340.7515,88.4705,271.6465,-2.0198e-05,-6.09e-06,0.0,0 STARLINK-3562,1 51861U 22022K   23288.88754342 -.00000609  00000-0 -20198-4 0  9994,2 51861  53.2164 340.7515 0001556  88.4705 271.6465 15.08835435 90819,6917.894,95.438,540.836,538.683,0.0
51861.0,STARLINK-3562,PAYLOAD,2023-10-16 08:25:45,15.08845201,0.0001505,53.2157,338.6692,90.4957,269.6208,0.0003438,5.189e-05,0.0,0 STARLINK-3562,1 51861U 22022K   23289.35122169  .00005189  00000-0  34380-3 0  9996,2 51861  53.2157 338.6692 0001505  90.4957 269.6208 15.08845201 90958,6917.864,95.437,540.771,538.688,0.0
51861.0,STARLINK-3562,PAYLOAD,2023-10-16 10:01:08,15.08848293,0.0001445,53.2158,338.3719,90.3424,269.7734,0.00043645,6.667e-05,0.0,0 STARLINK-3562,1 51861U 22022K   23289.41746127  .00006667  00000-0  43645-3 0  9995,2 51861  53.2158 338.3719 0001445  90.3424 269.7734 15.08848293 90899,6917.855,95.437,540.72,538.72,0.0
51861.0,STARLINK-3562,PAYLOAD,2023-10-17 09:51:55,15.08845825,0.0001395,53.2166,333.9094,99.4695,260.6455,0.00040633,6.186e-05,0.0,0 STARLINK-3562,1 51861U 22022K   23290.41106244  .00006186  00000-0  40633-3 0  9997,2 51861  53.2166 333.9094 0001395  99.4695 260.6455 15.08845825 91113,6917.863,95.437,540.693,538.763,0.0
51861.0,STARLINK-3562,PAYLOAD,2023-10-18 03:21:10,15.08843328,0.000153,53.2161,330.6408,91.504,268.6128,7.1472e-05,8.5e-06,0.0,0 STARLINK-3562,1 51861U 22022K   23291.13970208  .00000850  00000-0  71472-4 0  9994,2 51861  53.2161 330.6408 0001530  91.5040 268.6128 15.08843328 91154,6917.87,95.437,540.794,538.677,0.0
51861.0,STARLINK-3562,PAYLOAD,2023-10-18 09:42:42,15.08843664,0.0001544,53.2162,329.4519,91.1799,268.937,8.1078e-05,1.003e-05,0.0,0 STARLINK-3562,1 51861U 22022K   23291.40466171  .00001003  00000-0  81078-4 0  9997,2 51861  53.2162 329.4519 0001544  91.1799 268.9370 15.08843664 91263,6917.869,95.437,540.802,538.666,0.0
51861.0,STARLINK-3562,PAYLOAD,2023-10-18 19:15:01,15.08842058,0.0001513,53.2164,327.6682,88.8273,271.2893,8.3773e-05,1.046e-05,0.0,0 STARLINK-3562,1 51861U 22022K   23291.80210332  .00001046  00000-0  83773-4 0  9998,2 51861  53.2164 327.6682 0001513  88.8273 271.2893 15.08842058 91254,6917.874,95.437,540.786,538.692,0.0
51861.0,STARLINK-3562,PAYLOAD,2023-10-19 07:58:06,15.0884983,0.0001559,53.2163,325.2899,95.6055,264.5115,0.00024502,3.615e-05,0.0,0 STARLINK-3562,1 51861U 22022K   23292.33201961  .00003615  00000-0  24502-3 0  9993,2 51861  53.2163 325.2899 0001559  95.6055 264.5115 15.08849830 91337,6917.85,95.437,540.794,538.637,0.0
51861.0,STARLINK-3562,PAYLOAD,2023-10-19 19:05:48,15.08847451,0.0001509,53.2156,323.2073,89.4958,270.6207,0.00019354,2.794e-05,0.0,0 STARLINK-3562,1 51861U 22022K   23292.79569913  .00002794  00000-0  19354-3 0  9993,2 51861  53.2156 323.2073 0001509  89.4958 270.6207 15.08847451 91471,6917.858,95.437,540.767,538.679,0.0
